{"type": "FeatureCollection", "features": [{"type": "Feature", "properties": {"REGION": "A"}, "geometry": {"type": "Polygon", "coordinates": [[[-102.167471, 35.183233], [-103.042377, 35.183156], [-103.041669, 36.478514], [-103.002434, 36.500397], [-100.000406, 36.499702], [-99.99772, 34.311829], [-100.946132, 34.312759], [-100.944939, 34.748281], [-102.168839, 34.747417], [-102.167471, 35.183233]]]}}, {"type": "Feature", "properties": {"REGION": "B"}, "geometry": {"type": "Polygon", "coordinates": [[[-98.400494, 34.121778], [-98.383222, 34.147806], [-98.364023, 34.157109], [-98.325445, 34.151025], [-98.293901, 34.13302], [-98.16912, 34.114171], [-98.08526, 34.003259], [-98.041117, 33.993456], [-97.983521, 34.001559], [-97.94573, 33.989839], [-97.953395, 33.936445], [-97.977859, 33.889929], [-97.877387, 33.850236], [-97.834333, 33.857671], [-97.785317, 33.890701], [-97.69311, 33.983699], [-97.671772, 33.99137], [-97.609091, 33.968093], [-97.589598, 33.953554], [-97.597115, 33.917868], [-97.587441, 33.902479], [-97.555002, 33.897282], [-97.50096, 33.919643], [-97.484071, 33.91568], [-97.487065, 33.433681], [-97.978967, 33.433748], [-97.978919, 33.467129], [-98.421419, 33.466797], [-98.420666, 33.396195], [-99.472444, 33.399023], [-99.474498, 33.733849], [-99.599863, 33.787634], [-99.835143, 33.8358], [-99.996434, 33.835967], [-99.99098, 33.397404], [-100.517449, 33.397866], [-100.51734, 34.314102], [-99.99772, 34.311829], [-99.997853, 34.561485], [-99.954567, 34.578195], [-99.923211, 34.574552], [-99.884842, 34.546953], [-99.793684, 34.453894], [-99.69497, 34.378333], [-99.616793, 34.375391], [-99.574367, 34.418281], [-99.515385, 34.414333], [-99.453477, 34.388756], [-99.44076, 34.374123], [-99.407168, 34.372605], [-99.398635, 34.375832], [-99.356713, 34.442144], [-99.261321, 34.403499], [-99.211423, 34.337897], [-99.211648, 34.292232], [-99.19089, 34.215251], [-99.119204, 34.201747], [-98.966743, 34.201185], [-98.858419, 34.152732], [-98.76557, 34.136376], [-98.700182, 34.135995], [-98.652347, 34.161029], [-98.599789, 34.160571], [-98.553717, 34.13366], [-98.504182, 34.072371], [-98.475066, 34.064269], [-98.400494, 34.121778]]]}}, {"type": "Feature", "properties": {"REGION": "C"}, "geometry": {"type": "Polygon", "coordinates": [[[-96.940656, 32.052087], [-97.086191, 32.265451], [-97.086834, 32.549428], [-98.066836, 32.558822], [-98.056094, 33.003332], [-98.426553, 33.007913], [-98.421419, 33.466797], [-97.978919, 33.467129], [-97.978967, 33.433748], [-97.487065, 33.433681], [-97.484071, 33.91568], [-97.450954, 33.891398], [-97.462857, 33.841772], [-97.453057, 33.828536], [-97.426493, 33.819398], [-97.372941, 33.819454], [-97.310843, 33.872461], [-97.210921, 33.916064], [-97.180845, 33.895204], [-97.166629, 33.847311], [-97.171627, 33.835335], [-97.1997, 33.827322], [-97.204827, 33.799908], [-97.172192, 33.737545], [-97.151257, 33.722608], [-97.121102, 33.717174], [-97.092414, 33.733214], [-97.047972, 33.817931], [-96.985567, 33.886522], [-96.97287, 33.935698], [-96.922114, 33.959579], [-96.899442, 33.933728], [-96.895728, 33.896414], [-96.88301, 33.868019], [-96.85609, 33.84749], [-96.761588, 33.824406], [-96.712422, 33.831633], [-96.694629, 33.849988], [-96.67858, 33.892786], [-96.65864, 33.900081], [-96.615356, 33.881114], [-96.612925, 33.833939], [-96.500268, 33.772583], [-96.448045, 33.781031], [-96.423362, 33.776365], [-96.36959, 33.716809], [-96.304675, 33.745901], [-96.220521, 33.74739], [-96.181704, 33.758504], [-96.170055, 33.76917], [-96.14807, 33.837799], [-95.949935, 33.857452], [-95.846334, 33.841136], [-95.858723, 33.40953], [-96.295413, 33.351936], [-96.297322, 32.841723], [-96.076801, 32.838489], [-96.075899, 32.357505], [-96.452138, 32.358631], [-96.383082, 32.328851], [-96.115693, 32.160915], [-96.05288, 32.008198], [-96.062172, 31.95634], [-96.022955, 31.957581], [-96.027788, 31.878242], [-95.994127, 31.866258], [-95.980568, 31.784561], [-95.875937, 31.755503], [-95.861262, 31.687451], [-95.794081, 31.66031], [-95.7873, 31.618385], [-96.236629, 31.413392], [-96.496713, 31.796191], [-96.719114, 31.814887], [-96.896209, 32.073977], [-96.940656, 32.052087]]]}}, {"type": "Feature", "properties": {"REGION": "D"}, "geometry": {"type": "Polygon", "coordinates": [[[-96.075899, 32.357505], [-96.076801, 32.838489], [-96.297322, 32.841723], [-96.295413, 33.351936], [-95.858723, 33.40953], [-95.846334, 33.841136], [-95.82468, 33.837726], [-95.763622, 33.847954], [-95.757156, 33.867293], [-95.599678, 33.934247], [-95.559414, 33.930179], [-95.549145, 33.90795], [-95.552085, 33.888422], [-95.544346, 33.880111], [-95.407795, 33.866308], [-95.287565, 33.873617], [-95.255541, 33.892047], [-95.2482, 33.912327], [-95.252906, 33.933648], [-95.231113, 33.960361], [-95.219358, 33.961567], [-95.067253, 33.917351], [-95.039452, 33.860621], [-94.8693, 33.745871], [-94.760604, 33.727054], [-94.735128, 33.691267], [-94.52838, 33.615995], [-94.490684, 33.625586], [-94.485875, 33.637867], [-94.464336, 33.598819], [-94.355945, 33.54318], [-94.252656, 33.586144], [-94.181805, 33.593217], [-94.085243, 33.575546], [-94.04345, 33.552253], [-94.042901, 32.392283], [-94.347563, 32.330682], [-94.491818, 32.394137], [-94.579219, 32.394916], [-94.600776, 32.360044], [-94.638347, 32.370539], [-94.985411, 32.37082], [-94.985272, 32.137989], [-95.459908, 32.135559], [-95.488733, 32.232486], [-95.449165, 32.355233], [-96.075899, 32.357505]]]}}, {"type": "Feature", "properties": {"REGION": "E"}, "geometry": {"type": "Polygon", "coordinates": [[[-103.585084, 30.76647], [-102.567049, 30.052808], [-102.566937, 30.283269], [-102.343085, 30.284116], [-102.342986, 30.598759], [-102.138406, 30.597521], [-102.137778, 30.655982], [-101.769353, 30.653369], [-101.65263, 30.619374], [-101.646245, 30.560763], [-101.740429, 30.420897], [-101.65853, 30.357861], [-101.7584, 30.288044], [-101.761839, 29.777187], [-101.944913, 29.801468], [-102.050044, 29.78507], [-102.116076, 29.792527], [-102.262466, 29.853765], [-102.297331, 29.875194], [-102.323389, 29.875193], [-102.364647, 29.843624], [-102.386677, 29.76148], [-102.486819, 29.786725], [-102.554915, 29.748966], [-102.612879, 29.748182], [-102.665194, 29.737421], [-102.689738, 29.722349], [-102.745494, 29.592967], [-102.781807, 29.542454], [-102.808692, 29.522319], [-102.83332, 29.408981], [-102.875813, 29.353715], [-102.895886, 29.284778], [-102.886308, 29.24568], [-102.871347, 29.241625], [-102.866846, 29.225015], [-102.95089, 29.176835], [-102.995688, 29.161219], [-103.10443, 29.03359], [-103.115328, 28.98527], [-103.156646, 28.972831], [-103.281903, 28.990089], [-103.383508, 29.024112], [-103.471037, 29.075368], [-103.470518, 29.085108], [-103.503236, 29.11911], [-103.558679, 29.154962], [-103.714867, 29.184137], [-103.767814, 29.224954], [-103.792005, 29.262695], [-103.838303, 29.278304], [-104.025488, 29.314404], [-104.167506, 29.402928], [-104.235847, 29.496744], [-104.264155, 29.514001], [-104.321603, 29.527923], [-104.394351, 29.560535], [-104.515512, 29.641493], [-104.538569, 29.677396], [-104.566055, 29.771379], [-104.633275, 29.870485], [-104.679877, 29.920946], [-104.693592, 30.019077], [-104.687296, 30.179464], [-104.708916, 30.235826], [-104.761634, 30.301148], [-104.859521, 30.390413], [-104.872808, 30.500145], [-104.929778, 30.59924], [-104.972071, 30.61026], [-105.044407, 30.683895], [-105.129328, 30.750139], [-105.211234, 30.799609], [-105.265479, 30.802536], [-105.394627, 30.85892], [-105.411833, 30.893367], [-105.55679, 30.989469], [-105.57765, 31.019811], [-105.585323, 31.057488], [-105.60333, 31.082625], [-105.648834, 31.115902], [-105.709491, 31.136375], [-105.750519, 31.16494], [-105.793719, 31.201713], [-105.869353, 31.288634], [-105.923131, 31.312089], [-105.981027, 31.375122], [-106.00693, 31.392826], [-106.132782, 31.425367], [-106.2092, 31.469234], [-106.254062, 31.547512], [-106.381039, 31.73211], [-106.436743, 31.756872], [-106.472514, 31.751802], [-106.528543, 31.783907], [-106.535843, 31.798607], [-106.625763, 31.856276], [-106.616136, 31.948439], [-106.599096, 32.000731], [-104.024521, 32.00001], [-104.102351, 31.105203], [-103.585084, 30.76647]]]}}, {"type": "Feature", "properties": {"REGION": "F"}, "geometry": {"type": "Polygon", "coordinates": [[[-101.76842, 30.653077], [-102.137778, 30.655982], [-102.138406, 30.597521], [-102.342986, 30.598759], [-102.343085, 30.284116], [-102.566937, 30.283269], [-102.567049, 30.052808], [-103.585084, 30.76647], [-104.102351, 31.105203], [-104.024521, 32.00001], [-103.064423, 32.000518], [-103.064696, 32.522193], [-101.68874, 32.525222], [-101.691284, 32.961838], [-101.03866, 32.970225], [-100.65587, 32.963469], [-100.665353, 32.085407], [-98.924401, 32.078018], [-98.668441, 31.700514], [-98.760057, 31.687896], [-98.779951, 31.610735], [-98.991608, 31.484071], [-99.090622, 31.460927], [-99.092431, 30.921968], [-98.964612, 30.921368], [-98.964232, 30.498482], [-99.303996, 30.499832], [-99.301718, 30.286653], [-101.7584, 30.288044], [-101.65853, 30.357861], [-101.740429, 30.420897], [-101.646245, 30.560763], [-101.65263, 30.619374], [-101.76842, 30.653077]]]}}, {"type": "Feature", "properties": {"REGION": "G"}, "geometry": {"type": "Polygon", "coordinates": [[[-98.668441, 31.700514], [-98.924401, 32.078018], [-100.665353, 32.085407], [-100.65587, 32.963469], [-101.03866, 32.970225], [-101.038788, 33.397214], [-99.99098, 33.397404], [-99.996434, 33.835967], [-99.835143, 33.8358], [-99.599863, 33.787634], [-99.474498, 33.733849], [-99.472444, 33.399023], [-98.420666, 33.396195], [-98.426553, 33.007913], [-98.056094, 33.003332], [-98.066836, 32.558822], [-97.086834, 32.549428], [-97.086191, 32.265451], [-96.940656, 32.052087], [-96.896209, 32.073977], [-96.719114, 31.814887], [-96.496713, 31.796191], [-96.236629, 31.413392], [-96.322853, 31.374067], [-96.33109, 31.25223], [-96.24102, 30.973737], [-96.16837, 30.822997], [-95.863059, 30.864125], [-95.83024, 30.630284], [-95.804351, 30.3378], [-95.804306, 30.24557], [-96.093165, 30.225187], [-96.15901, 30.206613], [-96.191418, 30.134669], [-96.146052, 30.070224], [-96.292849, 30.09615], [-96.62198, 30.044283], [-96.647223, 30.145174], [-96.794552, 30.160545], [-97.019163, 30.032], [-97.081834, 30.259357], [-97.334463, 30.402843], [-97.576167, 30.501799], [-97.775211, 30.429993], [-97.956734, 30.628249], [-98.049886, 30.624155], [-97.96286, 30.785641], [-97.828512, 30.906188], [-97.911684, 31.034919], [-98.439687, 31.029537], [-98.523459, 31.088886], [-98.510341, 31.155666], [-98.562739, 31.230582], [-98.266794, 31.410521], [-98.492802, 31.723608], [-98.668441, 31.700514]]]}}, {"type": "Feature", "properties": {"REGION": "H"}, "geometry": {"type": "Polygon", "coordinates": [[[-95.026219, 29.148064], [-95.238924, 28.988644], [-95.297147, 28.934073], [-95.353451, 28.898145], [-95.38239, 28.866348], [-95.439594, 28.859022], [-95.507041, 28.824755], [-95.567708, 28.829758], [-95.67955, 28.965734], [-95.764937, 28.967359], [-95.770446, 29.06621], [-95.84631, 29.107799], [-95.874028, 29.229702], [-95.841948, 29.258707], [-95.8796, 29.266761], [-95.894468, 29.31498], [-95.94681, 29.333433], [-95.937434, 29.358086], [-95.97343, 29.411445], [-96.060676, 29.476473], [-96.044596, 29.562238], [-96.088912, 29.601658], [-96.259226, 29.668912], [-96.344476, 29.830147], [-96.413283, 29.824985], [-96.569844, 29.961516], [-96.62198, 30.044283], [-96.292849, 30.09615], [-96.146052, 30.070224], [-96.191418, 30.134669], [-96.15901, 30.206613], [-96.093165, 30.225187], [-95.804306, 30.24557], [-95.804351, 30.3378], [-95.83024, 30.630284], [-95.863059, 30.864125], [-96.16837, 30.822997], [-96.24102, 30.973737], [-96.33109, 31.25223], [-96.322853, 31.374067], [-95.7873, 31.618385], [-95.710112, 31.615587], [-95.739279, 31.504056], [-95.657202, 31.317999], [-95.725226, 31.271084], [-95.76441, 31.094211], [-95.663546, 31.083884], [-95.681158, 30.986958], [-95.617872, 30.930418], [-94.95811, 31.38693], [-94.909502, 31.337059], [-94.842947, 31.146578], [-94.561943, 31.058952], [-94.657992, 31.012007], [-94.537926, 30.491059], [-94.732732, 30.490066], [-94.603159, 30.130904], [-94.44491, 30.113015], [-94.442235, 29.889538], [-94.357976, 29.887464], [-94.354163, 29.561459], [-94.631084, 29.451464], [-94.694158, 29.415632], [-94.731047, 29.369141], [-94.778691, 29.361483], [-94.783131, 29.375642], [-94.706365, 29.436805], [-94.681541, 29.471389], [-94.608557, 29.483345], [-94.594211, 29.492127], [-94.591407, 29.513858], [-94.566674, 29.531988], [-94.532348, 29.5178], [-94.495025, 29.525031], [-94.503429, 29.54325], [-94.523743, 29.545987], [-94.553988, 29.573882], [-94.740699, 29.525858], [-94.780938, 29.531093], [-94.790605, 29.548401], [-94.771053, 29.548439], [-94.755237, 29.562782], [-94.708741, 29.625226], [-94.693154, 29.694453], [-94.695317, 29.723052], [-94.735271, 29.785433], [-94.816085, 29.75671], [-94.851108, 29.721373], [-94.872551, 29.67125], [-94.893107, 29.661336], [-94.921318, 29.658178], [-94.936089, 29.692704], [-94.965963, 29.70033], [-95.015636, 29.639457], [-95.013499, 29.629194], [-94.982706, 29.601344], [-95.018253, 29.554885], [-94.999581, 29.521093], [-94.981916, 29.511141], [-94.909465, 29.496838], [-94.930861, 29.450504], [-94.8908, 29.433432], [-94.886536, 29.366386], [-94.893994, 29.30817], [-94.875952, 29.293015], [-94.824953, 29.306005], [-94.822307, 29.344254], [-94.810696, 29.353435], [-94.784895, 29.335535], [-94.73132, 29.338066], [-94.72253, 29.331446], [-95.026219, 29.148064]]]}}, {"type": "Feature", "properties": {"REGION": "I"}, "geometry": {"type": "Polygon", "coordinates": [[[-94.603159, 30.130904], [-94.732732, 30.490066], [-94.537926, 30.491059], [-94.657992, 31.012007], [-94.561943, 31.058952], [-94.842947, 31.146578], [-94.909502, 31.337059], [-94.95811, 31.38693], [-95.617872, 30.930418], [-95.681158, 30.986958], [-95.663546, 31.083884], [-95.76441, 31.094211], [-95.725226, 31.271084], [-95.657202, 31.317999], [-95.739279, 31.504056], [-95.710112, 31.615587], [-95.7873, 31.618385], [-95.794081, 31.66031], [-95.861262, 31.687451], [-95.875937, 31.755503], [-95.980568, 31.784561], [-95.994127, 31.866258], [-96.027788, 31.878242], [-96.022955, 31.957581], [-96.062172, 31.95634], [-96.05288, 32.008198], [-96.115693, 32.160915], [-96.383082, 32.328851], [-96.452138, 32.358631], [-95.449165, 32.355233], [-95.488733, 32.232486], [-95.459908, 32.135559], [-94.985272, 32.137989], [-94.985411, 32.37082], [-94.638347, 32.370539], [-94.600776, 32.360044], [-94.579219, 32.394916], [-94.491818, 32.394137], [-94.347563, 32.330682], [-94.042901, 32.392283], [-94.04272, 31.999265], [-94.01563, 31.979856], [-93.975377, 31.92366], [-93.92029, 31.888651], [-93.840029, 31.800596], [-93.812477, 31.715246], [-93.834924, 31.586211], [-93.798087, 31.534044], [-93.729613, 31.487922], [-93.695866, 31.409392], [-93.640805, 31.372546], [-93.671676, 31.299586], [-93.644407, 31.27711], [-93.620829, 31.271299], [-93.614402, 31.260869], [-93.598828, 31.174679], [-93.588503, 31.165581], [-93.548931, 31.186601], [-93.531744, 31.180817], [-93.527644, 31.074509], [-93.540354, 31.008135], [-93.530936, 30.924534], [-93.558617, 30.869424], [-93.563292, 30.818503], [-93.727844, 30.57407], [-93.740045, 30.538765], [-93.710117, 30.5064], [-93.698302, 30.438657], [-93.757654, 30.390423], [-93.765822, 30.333318], [-93.735896, 30.29944], [-93.720575, 30.295961], [-93.712008, 30.194304], [-93.695252, 30.1476], [-93.712101, 30.067346], [-93.752038, 30.016403], [-93.789431, 29.987812], [-93.890679, 29.843159], [-93.89847, 29.771577], [-93.837971, 29.690619], [-93.866981, 29.673085], [-94.001406, 29.681486], [-94.056506, 29.671163], [-94.354163, 29.561459], [-94.357976, 29.887464], [-94.442235, 29.889538], [-94.44491, 30.113015], [-94.603159, 30.130904]]]}}, {"type": "Feature", "properties": {"REGION": "J"}, "geometry": {"type": "Polygon", "coordinates": [[[-100.793662, 29.242146], [-100.954042, 29.347598], [-100.995607, 29.363403], [-101.037642, 29.414681], [-101.060151, 29.458661], [-101.087149, 29.469414], [-101.137503, 29.473542], [-101.235275, 29.524854], [-101.250383, 29.624171], [-101.314135, 29.659054], [-101.343743, 29.662047], [-101.403926, 29.757587], [-101.455007, 29.770188], [-101.625958, 29.771063], [-101.646418, 29.754304], [-101.761839, 29.777187], [-101.7584, 30.288044], [-99.301718, 30.286653], [-99.300988, 30.134298], [-98.920147, 30.13829], [-98.917725, 29.781398], [-98.778782, 29.720167], [-98.927161, 29.56225], [-98.983787, 29.62345], [-100.112098, 29.623263], [-100.111406, 29.086318], [-100.668356, 29.08397], [-100.793662, 29.242146]]]}}, {"type": "Feature", "properties": {"REGION": "K"}, "geometry": {"type": "MultiPolygon", "coordinates": [[[[-98.2976, 30.037994], [-98.414018, 29.937557], [-98.587897, 30.138954], [-99.300988, 30.134298], [-99.303996, 30.499832], [-98.964232, 30.498482], [-98.964612, 30.921368], [-99.092431, 30.921968], [-99.090622, 31.460927], [-98.991608, 31.484071], [-98.779951, 31.610735], [-98.760057, 31.687896], [-98.492802, 31.723608], [-98.266794, 31.410521], [-98.562739, 31.230582], [-98.510341, 31.155666], [-98.523459, 31.088886], [-98.439687, 31.029537], [-97.911684, 31.034919], [-97.840365, 30.929318], [-97.828512, 30.906188], [-97.96286, 30.785641], [-98.049886, 30.624155], [-97.956734, 30.628249], [-97.775211, 30.429993], [-97.576167, 30.501799], [-97.334463, 30.402843], [-97.081834, 30.259357], [-97.019163, 30.032], [-96.794552, 30.160545], [-96.647223, 30.145174], [-96.62198, 30.044283], [-96.569844, 29.961516], [-96.413283, 29.824985], [-96.344476, 29.830147], [-96.259226, 29.668912], [-96.175422, 29.633806], [-96.307672, 29.514523], [-96.349217, 29.406052], [-96.640315, 29.247804], [-96.658466, 29.263876], [-96.560555, 29.335439], [-96.793132, 29.577378], [-96.874222, 29.632706], [-97.142643, 29.628101], [-97.130517, 29.643296], [-97.317893, 29.784658], [-97.655257, 30.072907], [-97.710215, 30.024499], [-98.172977, 30.356312], [-98.2976, 30.037994]]], [[[-95.874028, 29.229702], [-95.84631, 29.107799], [-95.770446, 29.06621], [-95.764937, 28.967359], [-95.67955, 28.965734], [-95.567708, 28.829758], [-95.507041, 28.824755], [-95.812504, 28.664942], [-96.220376, 28.491966], [-96.371117, 28.397661], [-96.370717, 28.387667], [-96.378616, 28.383909], [-96.381864, 28.393276], [-96.374138, 28.404275], [-96.335119, 28.437795], [-96.268341, 28.477992], [-96.223825, 28.495067], [-96.21505, 28.509679], [-96.046211, 28.58698], [-95.98616, 28.606319], [-95.982088, 28.614461], [-95.978526, 28.650594], [-95.996338, 28.658736], [-96.006516, 28.648049], [-96.047737, 28.649067], [-96.198374, 28.58698], [-96.228909, 28.580873], [-96.233998, 28.601738], [-96.21415, 28.613443], [-96.212624, 28.622604], [-96.230944, 28.641433], [-96.192267, 28.687744], [-96.202446, 28.700976], [-96.287942, 28.683164], [-96.304227, 28.671459], [-96.303718, 28.644996], [-96.322921, 28.64186], [-96.309178, 28.963291], [-95.965196, 29.146865], [-95.874028, 29.229702]]]]}}, {"type": "Feature", "properties": {"REGION": "L"}, "geometry": {"type": "MultiPolygon", "coordinates": [[[[-100.113719, 28.197819], [-100.112098, 29.623263], [-98.983787, 29.62345], [-98.927161, 29.56225], [-98.778782, 29.720167], [-98.917725, 29.781398], [-98.920147, 30.13829], [-98.587897, 30.138954], [-98.414018, 29.937557], [-98.2976, 30.037994], [-98.172977, 30.356312], [-97.710215, 30.024499], [-97.655257, 30.072907], [-97.317893, 29.784658], [-97.130517, 29.643296], [-97.204087, 29.580613], [-97.240108, 29.384488], [-96.938587, 29.063244], [-96.832103, 29.021299], [-96.792133, 28.918803], [-96.711514, 28.851411], [-96.645867, 28.710457], [-96.664534, 28.696904], [-96.635018, 28.668914], [-96.634, 28.654665], [-96.61059, 28.638889], [-96.622804, 28.622095], [-96.611099, 28.585962], [-96.565297, 28.5824], [-96.561226, 28.570695], [-96.526111, 28.557972], [-96.505755, 28.525911], [-96.402446, 28.449066], [-96.403973, 28.44245], [-96.542905, 28.385452], [-96.59176, 28.357462], [-96.650794, 28.346775], [-96.672677, 28.335579], [-96.705247, 28.348811], [-96.700158, 28.369676], [-96.710336, 28.406827], [-96.762245, 28.411916], [-96.775985, 28.405809], [-96.790235, 28.383926], [-96.791159, 28.319095], [-97.123072, 28.272817], [-97.023586, 28.187657], [-97.144916, 28.102622], [-97.260818, 28.075759], [-97.351825, 28.123502], [-97.427171, 28.117668], [-97.541071, 28.164669], [-97.375579, 28.388684], [-97.551369, 28.450441], [-97.558496, 28.514054], [-97.696945, 28.541856], [-97.77853, 28.668027], [-97.915106, 28.719648], [-98.005252, 28.690239], [-98.098315, 28.786949], [-98.335031, 28.612658], [-98.335047, 28.648275], [-98.800848, 28.647306], [-98.803325, 28.05748], [-99.388946, 28.030419], [-99.394177, 28.204627], [-100.113719, 28.197819]]], [[[-96.81042, 28.126034], [-96.822859, 28.167476], [-96.791958, 28.188687], [-96.703838, 28.198246], [-96.697422, 28.202959], [-96.703314, 28.216446], [-96.662462, 28.227314], [-96.651856, 28.251275], [-96.607992, 28.27707], [-96.61048, 28.283093], [-96.592934, 28.296972], [-96.55326, 28.302341], [-96.528906, 28.322505], [-96.450998, 28.337039], [-96.403206, 28.371475], [-96.397846, 28.343513], [-96.4137, 28.327343], [-96.547774, 28.270798], [-96.621534, 28.2297], [-96.758141, 28.136873], [-96.853455, 28.061345], [-96.83003, 28.111842], [-96.81042, 28.126034]]], [[[-96.373439, 28.626675], [-96.487943, 28.569677], [-96.480309, 28.596649], [-96.485907, 28.607845], [-96.510844, 28.61497], [-96.497612, 28.625148], [-96.499648, 28.635835], [-96.563262, 28.644487], [-96.572931, 28.667897], [-96.559699, 28.691306], [-96.575141, 28.702837], [-96.428394, 28.703523], [-96.323522, 28.675597], [-96.322921, 28.64186], [-96.373439, 28.626675]]]]}}, {"type": "Feature", "properties": {"REGION": "M"}, "geometry": {"type": "Polygon", "coordinates": [[[-97.369627, 26.394603], [-97.388965, 26.36585], [-97.391001, 26.332262], [-97.376242, 26.336333], [-97.358176, 26.356435], [-97.343418, 26.359234], [-97.330441, 26.350582], [-97.354359, 26.313941], [-97.34698, 26.311396], [-97.343927, 26.267376], [-97.311866, 26.273737], [-97.307031, 26.253126], [-97.32128, 26.228699], [-97.296598, 26.200709], [-97.306776, 26.159487], [-97.282094, 26.120301], [-97.295072, 26.108342], [-97.270898, 26.086459], [-97.199651, 26.077044], [-97.195071, 26.04193], [-97.204995, 26.030225], [-97.226114, 26.024372], [-97.216954, 25.993838], [-97.195834, 25.993074], [-97.167208, 26.007069], [-97.162628, 26.023482], [-97.18273, 26.053126], [-97.164982, 26.063876], [-97.152009, 26.062108], [-97.145567, 25.971132], [-97.271382, 25.951832], [-97.348275, 25.931143], [-97.362345, 25.915724], [-97.366723, 25.885066], [-97.408357, 25.856459], [-97.511161, 25.887458], [-97.582565, 25.937857], [-97.668099, 26.022522], [-97.671568, 26.033955], [-97.888699, 26.064931], [-98.008307, 26.061147], [-98.044517, 26.043746], [-98.241664, 26.074544], [-98.386694, 26.157872], [-98.438822, 26.212022], [-98.58581, 26.257403], [-98.623335, 26.259592], [-98.6329, 26.250348], [-98.705676, 26.27748], [-98.751164, 26.331307], [-98.807348, 26.369421], [-98.861354, 26.36599], [-99.047575, 26.406922], [-99.105719, 26.43872], [-99.167996, 26.557799], [-99.242444, 26.788262], [-99.268613, 26.843213], [-99.321819, 26.906846], [-99.379149, 26.93449], [-99.446524, 27.023008], [-99.452316, 27.062669], [-99.429879, 27.094323], [-99.426348, 27.176262], [-99.441549, 27.24992], [-99.452391, 27.264046], [-99.494678, 27.277595], [-99.537771, 27.316073], [-99.50696, 27.35642], [-99.492831, 27.390491], [-99.480219, 27.485796], [-99.519381, 27.573569], [-99.541644, 27.605772], [-99.600619, 27.641314], [-99.666175, 27.638324], [-99.843463, 27.77456], [-99.876174, 27.806276], [-99.901486, 27.864162], [-99.895828, 27.904178], [-99.991447, 27.99456], [-100.083393, 28.144035], [-100.202448, 28.190554], [-100.291391, 28.275398], [-100.346986, 28.407232], [-100.333814, 28.499252], [-100.386963, 28.514023], [-100.405058, 28.53578], [-100.429856, 28.596441], [-100.500354, 28.66196], [-100.511998, 28.705352], [-100.507613, 28.740599], [-100.535438, 28.805195], [-100.546804, 28.825374], [-100.640092, 28.915833], [-100.651512, 28.943432], [-100.645894, 28.986421], [-100.668356, 29.08397], [-100.111406, 29.086318], [-100.113719, 28.197819], [-99.394177, 28.204627], [-99.388946, 28.030419], [-98.803325, 28.05748], [-98.798323, 27.354029], [-98.522293, 27.343284], [-98.523723, 27.265115], [-98.492943, 27.235012], [-98.466542, 27.054711], [-98.417883, 27.055285], [-98.422616, 26.783535], [-97.985494, 26.780917], [-97.985303, 26.615809], [-97.861688, 26.597995], [-97.441206, 26.599901], [-97.416955, 26.553637], [-97.430696, 26.506563], [-97.42637, 26.484425], [-97.441383, 26.466614], [-97.441383, 26.455418], [-97.411612, 26.447275], [-97.4195, 26.413178], [-97.406014, 26.409107], [-97.395072, 26.417249], [-97.377769, 26.409107], [-97.369627, 26.394603]]]}}, {"type": "Feature", "properties": {"REGION": "N"}, "geometry": {"type": "MultiPolygon", "coordinates": [[[[-97.635022, 27.247024], [-97.54291, 27.229213], [-97.520009, 27.231248], [-97.450289, 27.262546], [-97.42408, 27.264073], [-97.444945, 27.144734], [-97.443673, 27.116235], [-97.452324, 27.115217], [-97.461739, 27.095624], [-97.480569, 27.102494], [-97.495836, 27.094098], [-97.493291, 27.078067], [-97.477515, 27.066108], [-97.487693, 27.053639], [-97.486676, 27.03481], [-97.473953, 27.029212], [-97.478533, 26.999186], [-97.536803, 26.999695], [-97.555378, 26.99028], [-97.549526, 26.965344], [-97.555378, 26.93888], [-97.540111, 26.900967], [-97.552325, 26.888499], [-97.563266, 26.842188], [-97.552579, 26.827938], [-97.509831, 26.803511], [-97.484385, 26.763562], [-97.471663, 26.758727], [-97.441206, 26.599901], [-97.861688, 26.597995], [-97.985303, 26.615809], [-97.985494, 26.780917], [-98.422616, 26.783535], [-98.417883, 27.055285], [-98.466542, 27.054711], [-98.492943, 27.235012], [-98.523723, 27.265115], [-98.522293, 27.343284], [-98.798323, 27.354029], [-98.800848, 28.647306], [-98.335047, 28.648275], [-98.335031, 28.612658], [-98.098315, 28.786949], [-98.005252, 28.690239], [-97.915106, 28.719648], [-97.77853, 28.668027], [-97.696945, 28.541856], [-97.558496, 28.514054], [-97.551369, 28.450441], [-97.375579, 28.388684], [-97.541071, 28.164669], [-97.427171, 28.117668], [-97.351825, 28.123502], [-97.260818, 28.075759], [-97.144916, 28.102622], [-97.023586, 28.187657], [-97.123072, 28.272817], [-96.791159, 28.319095], [-96.809573, 28.290287], [-96.787181, 28.255681], [-96.800413, 28.224128], [-96.934765, 28.123873], [-96.962755, 28.123365], [-97.000414, 28.137614], [-97.027386, 28.124382], [-97.022806, 28.107588], [-97.035528, 28.074], [-97.025859, 28.041939], [-97.129168, 27.919801], [-97.187183, 27.824126], [-97.225176, 27.825723], [-97.228388, 27.843661], [-97.250797, 27.876035], [-97.273698, 27.881633], [-97.325097, 27.867893], [-97.379042, 27.837867], [-97.391764, 27.813948], [-97.393291, 27.782905], [-97.368355, 27.741683], [-97.316446, 27.712676], [-97.253955, 27.696696], [-97.296598, 27.613947], [-97.294054, 27.5941], [-97.321535, 27.571199], [-97.343418, 27.517764], [-97.350543, 27.478578], [-97.36581, 27.450588], [-97.372935, 27.401224], [-97.413138, 27.321325], [-97.450798, 27.313691], [-97.508304, 27.275014], [-97.544437, 27.284175], [-97.546981, 27.290791], [-97.526625, 27.291808], [-97.517465, 27.30504], [-97.498126, 27.308602], [-97.502706, 27.322343], [-97.483877, 27.338628], [-97.483877, 27.351351], [-97.501688, 27.366618], [-97.609068, 27.285193], [-97.636549, 27.282139], [-97.635022, 27.247024]]], [[[-97.370941, 27.161166], [-97.378362, 26.992877], [-97.364726, 26.871693], [-97.333028, 26.736479], [-97.229844, 26.433569], [-97.194644, 26.306513], [-97.154271, 26.066841], [-97.169842, 26.077853], [-97.183983, 26.214289], [-97.214885, 26.353606], [-97.240286, 26.405981], [-97.247619, 26.456261], [-97.276425, 26.521729], [-97.292399, 26.528014], [-97.31073, 26.556558], [-97.308635, 26.576723], [-97.338489, 26.647429], [-97.345822, 26.700589], [-97.370438, 26.723896], [-97.364153, 26.758987], [-97.368343, 26.795649], [-97.387459, 26.820789], [-97.390078, 27.156512], [-97.377508, 27.199459], [-97.386674, 27.204696], [-97.373318, 27.27645], [-97.357606, 27.307875], [-97.366771, 27.333276], [-97.361796, 27.359988], [-97.331157, 27.412362], [-97.317277, 27.46369], [-97.236882, 27.598293], [-97.242643, 27.607458], [-97.231383, 27.632336], [-97.214099, 27.631551], [-97.200743, 27.650144], [-97.203089, 27.688001], [-97.190007, 27.692829], [-97.166176, 27.732372], [-97.147321, 27.735384], [-97.130823, 27.75162], [-97.103326, 27.789068], [-97.092589, 27.819183], [-97.134489, 27.825206], [-97.056713, 27.842294], [-97.013634, 27.90678], [-97.016384, 27.917255], [-96.985745, 27.954048], [-96.977889, 27.976439], [-96.986661, 27.980759], [-96.967807, 28.020041], [-96.962569, 28.012381], [-96.952618, 28.01644], [-96.92643, 28.043413], [-96.927085, 28.057292], [-96.886233, 28.084396], [-96.886887, 28.11713], [-96.879424, 28.131402], [-96.84538, 28.108881], [-96.83003, 28.111842], [-96.853455, 28.061345], [-97.001441, 27.911442], [-97.041799, 27.852926], [-97.04598, 27.835004], [-97.116277, 27.752599], [-97.201866, 27.614858], [-97.30447, 27.407734], [-97.350398, 27.268105], [-97.370941, 27.161166]]]]}}, {"type": "Feature", "properties": {"REGION": "O"}, "geometry": {"type": "Polygon", "coordinates": [[[-103.064696, 32.522193], [-103.064625, 32.999899], [-103.043617, 34.003633], [-103.042377, 35.183156], [-102.167471, 35.183233], [-102.168839, 34.747417], [-100.944939, 34.748281], [-100.946132, 34.312759], [-100.51734, 34.314102], [-100.517449, 33.397866], [-101.038788, 33.397214], [-101.03866, 32.970225], [-101.691284, 32.961838], [-101.68874, 32.525222], [-103.064696, 32.522193]]]}}, {"type": "Feature", "properties": {"REGION": "P"}, "geometry": {"type": "Polygon", "coordinates": [[[-96.323522, 28.675597], [-96.428394, 28.703523], [-96.575141, 28.702837], [-96.584127, 28.722859], [-96.593796, 28.725403], [-96.645867, 28.710457], [-96.711514, 28.851411], [-96.792133, 28.918803], [-96.832103, 29.021299], [-96.938587, 29.063244], [-97.240108, 29.384488], [-97.204087, 29.580613], [-97.142643, 29.628101], [-96.874222, 29.632706], [-96.793132, 29.577378], [-96.560555, 29.335439], [-96.658466, 29.263876], [-96.640315, 29.247804], [-96.349217, 29.406052], [-96.307672, 29.514523], [-96.175422, 29.633806], [-96.088912, 29.601658], [-96.044596, 29.562238], [-96.060676, 29.476473], [-95.97343, 29.411445], [-95.937434, 29.358086], [-95.94681, 29.333433], [-95.894468, 29.31498], [-95.8796, 29.266761], [-95.841948, 29.258707], [-95.965196, 29.146865], [-96.309178, 28.963291], [-96.323522, 28.675597]]]}}]}